{
  "norad_id": 59621,
  "name": "STARLINK-31758",
  "history": [
    {
      "epoch": "2026-03-28T19:49:53.251392",
      "apogee_km": 483.8800694073534,
      "perigee_km": 482.22130867165106,
      "latitude_deg": 14.499704017428863,
      "longitude_deg": -138.57416512002237,
      "semi_major_axis_km": 6861.1876890395015,
      "eccentricity": 0.00012088,
      "inclination_deg": 43.0023,
      "raan_deg": 286.0036,
      "arg_perigee_deg": 270.2641,
      "mean_anomaly_deg": 89.8072,
      "mean_motion_rev_day": 15.27579468
    }
  ]
}