{"fetched_at":"2026-03-29T16:36:15Z","count":15609,"tles":[{"name":"STARLINK-31758","line1":"1 59621U 24080W   26087.82631078  .00001005  00000+0  46025-4 0  9991","line2":"2 59621  43.0023 286.0036 0001208 270.2641  89.8072 15.27579468107506","category":"Starlink"}]}